NORAD_CAT_ID,OBJECT_NAME,OBJECT_TYPE,EPOCH,MEAN_MOTION,ECCENTRICITY,INCLINATION,RA_OF_ASC_NODE,ARG_OF_PERICENTER,MEAN_ANOMALY,BSTAR,MEAN_MOTION_DOT,MEAN_MOTION_DDOT,TLE_LINE0,TLE_LINE1,TLE_LINE2,SEMIMAJOR_AXIS,PERIOD,APOGEE,PERIGEE,DECAYED
53177.0,STARLINK-4298,PAYLOAD,2023-10-29 14:37:26,15.08873002,0.0001454,53.2185,49.135,86.1917,273.9241,0.00097754,0.00015318,0.0,0 STARLINK-4298,1 53177U 22083AX  23302.60933885  .00015318  00000-0  97754-3 0  9993,2 53177  53.2185  49.1350 0001454  86.1917 273.9241 15.08873002 71557,6917.78,95.435,540.65,538.639,0.0
53177.0,STARLINK-4298,PAYLOAD,2023-10-30 11:17:28,15.08833606,0.0001349,53.2179,45.2736,97.2182,262.8963,-0.00058024,-9.509e-05,0.0,0 STARLINK-4298,1 53177U 22083AX  23303.47046553 -.00009509  00000-0 -58024-3 0  9990,2 53177  53.2179  45.2736 0001349  97.2182 262.8963 15.08833606 72325,6917.9,95.438,540.698,538.832,0.0
53177.0,STARLINK-4298,PAYLOAD,2023-10-31 12:43:39,15.08832283,0.0001418,53.2173,40.5156,103.4539,256.6611,0.00074249,0.00011546,0.0,0 STARLINK-4298,1 53177U 22083AX  23304.53032202  .00011546  00000-0  74249-3 0  9993,2 53177  53.2173  40.5156 0001418 103.4539 256.6611 15.08832283 72484,6917.904,95.438,540.75,538.788,0.0
53177.0,STARLINK-4298,PAYLOAD,2023-10-31 14:19:02,15.08836179,0.0001397,53.2175,40.2185,100.8915,259.2234,0.000843,0.00013152,0.0,0 STARLINK-4298,1 53177U 22083AX  23304.59656206  .00013152  00000-0  84300-3 0  9999,2 53177  53.2175  40.2185 0001397 100.8915 259.2234 15.08836179 71858,6917.892,95.438,540.723,538.791,0.0
53177.0,STARLINK-4298,PAYLOAD,2023-10-31 15:54:26,15.08841248,0.0001393,53.2175,39.9209,100.3576,259.7573,0.00097692,0.00015294,0.0,0 STARLINK-4298,1 53177U 22083AX  23304.66280160  .00015294  00000-0  97692-3 0  9996,2 53177  53.2175  39.9209 0001393 100.3576 259.7573 15.08841248 71869,6917.877,95.437,540.705,538.778,0.0
53177.0,STARLINK-4298,PAYLOAD,2023-11-01 12:34:26,15.08863636,0.0001381,53.2192,36.0569,92.3705,267.7445,0.0009196,0.00014387,0.0,0 STARLINK-4298,1 53177U 22083AX  23305.52391523  .00014387  00000-0  91960-3 0  9992,2 53177  53.2192  36.0569 0001381  92.3705 267.7445 15.08863636 71992,6917.808,95.436,540.628,538.718,0.0
53177.0,STARLINK-4298,PAYLOAD,2023-11-02 12:25:13,15.08856853,0.0001654,53.2182,31.5934,97.1016,263.0164,0.00047506,7.284e-05,0.0,0 STARLINK-4298,1 53177U 22083AX  23306.51751520  .00007284  00000-0  47506-3 0  9994,2 53177  53.2182  31.5934 0001654  97.1016 263.0164 15.08856853 72786,6917.829,95.436,540.838,538.55,0.0
53177.0,STARLINK-4298,PAYLOAD,2023-11-03 10:40:37,15.0884283,0.0001817,53.2191,27.4305,96.8214,263.2985,0.00053567,8.248e-05,0.0,0 STARLINK-4298,1 53177U 22083AX  23307.44487903  .00008248  00000-0  53567-3 0  9993,2 53177  53.2191  27.4305 0001817  96.8214 263.2985 15.08842830 72928,6917.872,95.437,540.994,538.48,0.0
53177.0,STARLINK-4298,PAYLOAD,2023-11-03 12:16:00,15.08845275,0.000165,53.2188,27.1336,81.8373,278.2806,0.00074023,0.00011514,0.0,0 STARLINK-4298,1 53177U 22083AX  23307.51112003  .00011514  00000-0  74023-3 0  9997,2 53177  53.2188  27.1336 0001650  81.8373 278.2806 15.08845275 72294,6917.864,95.437,540.871,538.588,0.0
53177.0,STARLINK-4298,PAYLOAD,2023-11-04 10:31:24,15.0884764,0.0001619,53.2179,22.9693,101.1919,258.9255,0.00035135,5.309e-05,0.0,0 STARLINK-4298,1 53177U 22083AX  23308.43847978  .00005309  00000-0  35135-3 0  9991,2 53177  53.2179  22.9693 0001619 101.1919 258.9255 15.08847640 73078,6917.857,95.437,540.842,538.602,0.0
53177.0,STARLINK-4298,PAYLOAD,2023-11-04 12:06:47,15.08850651,0.0001364,53.2174,22.6744,85.9814,274.1334,0.00050633,7.782e-05,0.0,0 STARLINK-4298,1 53177U 22083AX  23308.50471998  .00007782  00000-0  50633-3 0  9991,2 53177  53.2174  22.6744 0001364  85.9814 274.1334 15.08850651 72441,6917.848,95.437,540.656,538.769,0.0
53177.0,STARLINK-4298,PAYLOAD,2023-11-04 21:39:06,15.08845611,0.0001456,53.218,20.8895,89.4595,270.6564,0.00049395,7.583e-05,0.0,0 STARLINK-4298,1 53177U 22083AX  23308.90215787  .00007583  00000-0  49395-3 0  9999,2 53177  53.2180  20.8895 0001456  89.4595 270.6564 15.08845611 72505,6917.863,95.437,540.735,538.721,0.0
53177.0,STARLINK-4298,PAYLOAD,2023-11-05 11:57:33,15.08866328,0.0001447,53.2184,18.2125,85.247,274.8687,0.00064409,9.985e-05,0.0,0 STARLINK-4298,1 53177U 22083AX  23309.49830998  .00009985  00000-0  64409-3 0  9992,2 53177  53.2184  18.2125 0001447  85.2470 274.8687 15.08866328 73233,6917.8,95.436,540.666,538.664,0.0
53177.0,STARLINK-4298,PAYLOAD,2023-11-05 21:29:52,15.08873675,9.96e-05,53.2186,16.4278,65.0666,295.043,0.00078799,0.00012287,0.0,0 STARLINK-4298,1 53177U 22083AX  23309.89574391  .00012287  00000-0  78799-3 0  9994,2 53177  53.2186  16.4278 0000996  65.0666 295.0430 15.08873675 72654,6917.777,95.435,540.331,538.953,0.0
53177.0,STARLINK-4298,PAYLOAD,2023-11-05 23:05:16,15.08848954,0.0001626,53.2173,16.1329,82.0543,278.0634,3.6542e-07,-2.82e-06,0.0,0 STARLINK-4298,1 53177U 22083AX  23309.96199114 -.00000282  00000-0  36542-6 0  9994,2 53177  53.2173  16.1329 0001626  82.0543 278.0634 15.08848954 73300,6917.853,95.437,540.843,538.593,0.0
53177.0,STARLINK-4298,PAYLOAD,2023-11-06 11:48:21,15.08804965,0.0001965,53.2175,13.7545,64.2364,295.8831,-0.0012689,-0.00020407,0.0,0 STARLINK-4298,1 53177U 22083AX  23310.49191955 -.00020407  00000-0 -12689-2 0  9993,2 53177  53.2175  13.7545 0001965  64.2364 295.8831 15.08804965 73382,6917.987,95.44,541.212,538.493,0.0
53177.0,STARLINK-4298,PAYLOAD,2023-11-07 11:39:11,15.08819105,0.0001477,53.219,9.292,84.486,275.6301,0.001433,0.00022579,0.0,0 STARLINK-4298,1 53177U 22083AX  23311.48554558  .00022579  00000-0  14330-2 0  9990,2 53177  53.2190   9.2920 0001477  84.4860 275.6301 15.08819105 73536,6917.944,95.439,540.831,538.787,0.0
53177.0,STARLINK-4298,PAYLOAD,2023-11-08 11:29:58,15.08860761,0.0001753,53.2182,4.8367,75.7036,284.415,0.00099801,0.0001564,0.0,0 STARLINK-4298,1 53177U 22083AX  23312.47914535  .00015640  00000-0  99801-3 0  9993,2 53177  53.2182   4.8367 0001753  75.7036 284.4150 15.08860761 73048,6917.817,95.436,540.895,538.469,0.0
53177.0,STARLINK-4298,PAYLOAD,2023-11-08 21:02:16,15.08866897,0.0001846,53.2179,3.053,73.9977,286.1218,0.00054239,8.361e-05,0.0,0 STARLINK-4298,1 53177U 22083AX  23312.87657867  .00008361  00000-0  54239-3 0  9997,2 53177  53.2179   3.0530 0001846  73.9977 286.1218 15.08866897 73101,6917.798,95.436,540.94,538.386,0.0
53177.0,STARLINK-4298,PAYLOAD,2023-11-08 22:37:39,15.08865268,0.0001816,53.2177,2.7563,74.1174,286.0018,0.00062559,9.689e-05,0.0,0 STARLINK-4298,1 53177U 22083AX  23312.94281803  .00009689  00000-0  62559-3 0  9996,2 53177  53.2177   2.7563 0001816  74.1174 286.0018 15.08865268 73759,6917.803,95.436,540.924,538.412,0.0
53177.0,STARLINK-4298,PAYLOAD,2023-11-09 09:45:21,15.0885588,0.0001623,53.2178,0.6744,72.822,287.2949,0.00043098,6.581e-05,0.0,0 STARLINK-4298,1 53177U 22083AX  23313.40649475  .00006581  00000-0  43098-3 0  9996,2 53177  53.2178   0.6744 0001623  72.8220 287.2949 15.08855880 73824,6917.832,95.437,540.82,538.574,0.0
53177.0,STARLINK-4298,PAYLOAD,2023-11-09 20:53:02,15.08853355,0.0002004,53.2186,358.5931,72.2233,287.8977,5.9489e-05,6.59e-06,0.0,0 STARLINK-4298,1 53177U 22083AX  23313.87017273  .00000659  00000-0  59489-4 0  9994,2 53177  53.2186 358.5931 0002004  72.2233 287.8977 15.08853355 73257,6917.84,95.437,541.091,538.318,0.0
53177.0,STARLINK-4298,PAYLOAD,2023-11-10 00:03:49,15.08847603,0.0001271,53.2169,357.9976,88.7133,271.4005,0.0001489,2.083e-05,0.0,0 STARLINK-4298,1 53177U 22083AX  23314.00265158  .00002083  00000-0  14890-3 0  9996,2 53177  53.2169 357.9976 0001271  88.7133 271.4005 15.08847603 73919,6917.857,95.437,540.601,538.843,0.0
53177.0,STARLINK-4298,PAYLOAD,2023-11-10 09:36:07,15.08850941,0.0001469,53.2181,356.2112,87.2094,272.9066,-6.5143e-05,-1.325e-05,0.0,0 STARLINK-4298,1 53177U 22083AX  23314.40008931 -.00001325  00000-0 -65143-4 0  9992,2 53177  53.2181 356.2112 0001469  87.2094 272.9066 15.08850941 73334,6917.847,95.437,540.728,538.696,0.0
53177.0,STARLINK-4298,PAYLOAD,2023-11-11 03:05:22,15.08840357,0.000144,53.2187,352.9415,88.4714,271.6443,8.8233e-05,1.117e-05,0.0,0 STARLINK-4298,1 53177U 22083AX  23315.12873223  .00001117  00000-0  88233-4 0  9998,2 53177  53.2187 352.9415 0001440  88.4714 271.6443 15.08840357 74088,6917.879,95.438,540.74,538.748,0.0
53177.0,STARLINK-4298,PAYLOAD,2023-11-11 09:26:54,15.08853919,0.0001558,53.2174,351.75,108.1956,251.9206,-0.00020025,-3.475e-05,0.0,0 STARLINK-4298,1 53177U 22083AX  23315.39368237 -.00003475  00000-0 -20025-3 0  9996,2 53177  53.2174 351.7500 0001558 108.1956 251.9206 15.08853919 74125,6917.838,95.437,540.781,538.625,0.0
53177.0,STARLINK-4298,PAYLOAD,2023-11-11 18:59:13,15.08845977,0.0001515,53.2187,349.9659,107.9895,252.1262,-8.4015e-06,-4.22e-06,0.0,0 STARLINK-4298,1 53177U 22083AX  23315.79112687 -.00000422  00000-0 -84015-5 0  9996,2 53177  53.2187 349.9659 0001515 107.9895 252.1262 15.08845977 74181,6917.862,95.437,540.775,538.679,0.0
53177.0,STARLINK-4298,PAYLOAD,2023-11-12 02:56:09,15.08833192,0.0001458,53.2198,348.4811,96.7105,263.4053,0.00014621,2.039e-05,0.0,0 STARLINK-4298,1 53177U 22083AX  23316.12233487  .00002039  00000-0  14621-3 0  9994,2 53177  53.2198 348.4811 0001458  96.7105 263.4053 15.08833192 74237,6917.901,95.438,540.775,538.758,0.0
53177.0,STARLINK-4298,PAYLOAD,2023-11-12 09:17:42,15.08836195,0.0001421,53.2197,347.2921,102.7039,257.4112,0.00011227,1.499e-05,0.0,0 STARLINK-4298,1 53177U 22083AX  23316.38729536  .00001499  00000-0  11227-3 0  9995,2 53177  53.2197 347.2921 0001421 102.7039 257.4112 15.08836195 73637,6917.892,95.438,540.74,538.774,0.0
53177.0,STARLINK-4298,PAYLOAD,2023-11-12 18:50:00,15.08841703,0.0001504,53.2197,345.5084,101.1646,258.9515,6.5988e-05,7.62e-06,0.0,0 STARLINK-4298,1 53177U 22083AX  23316.78473274  .00000762  00000-0  65988-4 0  9990,2 53177  53.2197 345.5084 0001504 101.1646 258.9515 15.08841703 73697,6917.875,95.437,540.781,538.7,0.0
